ONEWEB-0068             
1 45446U 20020Y   26188.44829152  .00000351  00000+0  95498-3 0  9993
2 45446  87.8886  17.0303 0001651  88.6695 271.4622 13.11414670305256
ONEWEB-0046             
1 45447U 20020Z   26187.98216753  .00000503  00000+0  13837-2 0  9994
2 45447  87.8878  17.1276 0001765  81.0985 279.0343 13.11415849305201
ONEWEB-0063             
1 45448U 20020AA  26187.93481976 -.00000478  00000+0 -13847-2 0  9995
2 45448  87.8890  17.1378 0002025  81.6909 278.4448 13.11415651305289
ONEWEB-0019             
1 45449U 20020AB  26187.97352416 -.00002341  00000+0 -66421-2 0  9993
2 45449  87.8877  17.1137 0001723  90.1607 269.9718 13.11430639305134
ONEWEB-0094             
1 45450U 20020AC  26187.94635368  .00000017  00000+0  98706-5 0  9992
2 45450  87.9148   1.9194 0001717  96.7062 263.4265 13.17648624308918
ONEWEB-0087             
1 45451U 20020AD  26188.47879297 -.00000488  00000+0 -14133-2 0  9996
2 45451  87.8898  17.0052 0001535  89.6306 270.4998 13.11416548305247
ONEWEB-0082             
1 45452U 20020AE  26188.47540372 -.00000502  00000+0 -14512-2 0  9994
2 45452  87.8889  17.0207 0001436  79.8057 280.3233 13.11416454305332
ONEWEB-0050             
1 45453U 20020AF  26187.61331715  .00001751  00000+0  17751-3 0  9993
2 45453  88.9281 230.5725 0000669 221.0981 139.0198 14.90455053343273
ONEWEB-0034             
1 45454U 20020AG  26187.97892342  .00000558  00000+0  15391-2 0  9992
2 45454  87.8888  17.1289 0001848  88.6265 271.5075 13.11416026305184
ONEWEB-0060             
1 45455U 20020AH  26187.93383578 -.00000441  00000+0 -12796-2 0  9994
2 45455  87.8881  17.1342 0000904 107.3194 252.8033 13.11415701305130
ONEWEB-0086             
1 45456U 20020AJ  26187.91251643  .00000322  00000+0  87371-3 0  9998
2 45456  87.8888  17.1354 0001537 114.3516 245.7772 13.11415059305193
ONEWEB-0088             
1 45457U 20020AK  26188.50097880  .00000334  00000+0  90757-3 0  9991
2 45457  87.8897  16.9926 0001879  75.1090 285.0246 13.11417851305203
ONEWEB-0102             
1 47258U 20100A   26188.41305463  .00000120  00000+0  29786-3 0  9997
2 47258  87.8954 346.6518 0001908 103.1703 256.9639 13.12443843267384
ONEWEB-0109             
1 47259U 20100B   26188.42152820  .00000381  00000+0  10228-2 0  9995
2 47259  87.8964 346.6354 0001975  96.7133 263.4221 13.12443619267215
ONEWEB-0110             
1 47260U 20100C   26188.37240064  .00000020  00000+0  20459-4 0  9998
2 47260  87.8963 346.6292 0001671 102.2426 257.8890 13.12442052267374
ONEWEB-0111             
1 47261U 20100D   26187.94546422 -.00000105  00000+0 -32614-3 0  9999
2 47261  87.8962 346.7328 0001740  93.9455 266.1873 13.12443896267157
ONEWEB-0114             
1 47262U 20100E   26188.43338333  .00000443  00000+0  11954-2 0  9991
2 47262  87.8967 346.6338 0002032  95.4718 264.6643 13.12441806267176
ONEWEB-0117             
1 47263U 20100F   26188.42491239  .00000440  00000+0  11872-2 0  9992
2 47263  87.8962 346.6257 0001827  95.3702 264.7635 13.12442454267188
ONEWEB-0118             
1 47264U 20100G   26188.38254985 -.00000261  00000+0 -76196-3 0  9997
2 47264  87.8963 346.6369 0002070  87.6787 272.4579 13.12441079267378
ONEWEB-0119             
1 47265U 20100H   26188.40796886 -.00000040  00000+0 -14539-3 0  9990
2 47265  87.8951 346.6468 0001856  94.6300 265.5041 13.12443079267353
ONEWEB-0120             
1 47266U 20100J   26188.43182611  .00000464  00000+0  12550-2 0  9997
2 47266  87.8953 346.6435 0002035  96.9652 263.1708 13.12441722267385
ONEWEB-0121             
1 47267U 20100K   26188.41982683  .00000349  00000+0  93586-3 0  9994
2 47267  87.8964 346.6337 0001525  92.8894 267.2409 13.12442937267297
ONEWEB-0122             
1 47268U 20100L   26188.41389346  .00000164  00000+0  42156-3 0  9994
2 47268  87.8966 346.6398 0001909  99.3512 260.7833 13.12445036267205
ONEWEB-0123             
1 47269U 20100M   26188.40965938  .00000031  00000+0  50554-4 0  9996
2 47269  87.8953 346.6455 0001896  91.7469 268.3877 13.12443182267345
ONEWEB-0124             
1 47270U 20100N   26188.39949160 -.00000280  00000+0 -81473-3 0  9996
2 47270  87.8952 346.6502 0001735  92.8874 267.2454 13.12443167267222
ONEWEB-0125             
1 47271U 20100P   26188.37746893 -.00000164  00000+0 -49143-3 0  9992
2 47271  87.8964 346.6402 0001682  85.8789 274.2532 13.12441649267287
ONEWEB-0126             
1 47272U 20100Q   26188.39794545 -.00000302  00000+0 -87485-3 0  9997
2 47272  87.8956 346.6506 0001967  94.8422 265.2931 13.12442758267357
ONEWEB-0127             
1 47273U 20100R   26188.36392376  .00000322  00000+0  86006-3 0  9999
2 47273  87.8951 346.6550 0001964  95.9876 264.1477 13.12441941267372
ONEWEB-0128             
1 47274U 20100S   26188.38593928 -.00000367  00000+0 -10559-2 0  9998
2 47274  87.8950 346.6644 0001640 102.9514 257.1798 13.12442057267394
ONEWEB-0129             
1 47275U 20100T   26188.36561408  .00000245  00000+0  64537-3 0  9994
2 47275  87.8963 346.6441 0002924  99.5098 260.6361 13.12440941267326
ONEWEB-0130             
1 47276U 20100U   26187.93529504 -.00000365  00000+0 -10505-2 0  9998
2 47276  87.8959 346.7260 0001874  98.0001 262.1340 13.12442786267236
ONEWEB-0131             
1 47277U 20100V   26188.38932981 -.00000370  00000+0 -10639-2 0  9990
2 47277  87.8953 346.6514 0001758  99.8954 260.2373 13.12441798267337
ONEWEB-0132             
1 47278U 20100W   26188.41813264  .00000292  00000+0  77655-3 0  9990
2 47278  87.8956 346.6479 0001791  96.2045 263.9288 13.12442905267235
ONEWEB-0133             
1 47279U 20100X   26188.43493703  .00000393  00000+0  10558-2 0  9995
2 47279  87.8969 346.6227 0001700  96.5281 263.6041 13.12442712267393
ONEWEB-0134             
1 47280U 20100Y   26188.40457388 -.00000147  00000+0 -44511-3 0  9999
2 47280  87.8966 346.6259 0001956 102.1624 257.9724 13.12443265267360
ONEWEB-0135             
1 47281U 20100Z   26188.37577470 -.00000062  00000+0 -20841-3 0  9997
2 47281  87.8953 346.6521 0001874 105.0338 255.0999 13.12441871267388
ONEWEB-0136             
1 47282U 20100AA  26187.93698492 -.00000363  00000+0 -10450-2 0  9995
2 47282  87.8961 346.7225 0001991 103.6301 256.5050 13.12443113267255
ONEWEB-0137             
1 47283U 20100AB  26188.42830141  .00000470  00000+0  12711-2 0  9999
2 47283  87.8967 346.6356 0001855  90.2249 269.9092 13.12443275267227
ONEWEB-0138             
1 47284U 20100AC  26188.40627275 -.00000095  00000+0 -29959-3 0  9998
2 47284  87.8964 346.6446 0002002  99.6690 260.4665 13.12443290267301
ONEWEB-0139             
1 47285U 20100AD  26188.37084023  .00000089  00000+0  21236-3 0  9994
2 47285  87.8962 346.6378 0001903  95.2848 264.8498 13.12441634267379
ONEWEB-0140             
1 47286U 20100AE  26187.94376442 -.00000225  00000+0 -66199-3 0  9997
2 47286  87.8964 346.7140 0001701  97.0250 263.1072 13.12443568267281
ONEWEB-0141             
1 47287U 20100AF  26188.37055658  .00000071  00000+0  16182-3 0  9993
2 47287  87.8963 346.6336 0001975  86.9002 273.2352 13.12442045267329
ONEWEB-0142             
1 47288U 20100AG  26188.43522321  .00000406  00000+0  10944-2 0  9998
2 47288  87.8959 346.6414 0002218  89.2103 270.9280 13.12443258267322
ONEWEB-0143             
1 47289U 20100AH  26188.36900292  .00000157  00000+0  40190-3 0  9998
2 47289  87.8959 346.6541 0001860  94.0223 266.1119 13.12441938267290
ONEWEB-0144             
1 47290U 20100AJ  26188.41644121  .00000269  00000+0  71306-3 0  9999
2 47290  87.8965 346.6198 0002185  99.6239 260.5136 13.12443316267228
ONEWEB-0145             
1 47291U 20100AK  26188.38763256 -.00000352  00000+0 -10142-2 0  9992
2 47291  87.8954 346.6512 0001934  96.1067 264.0282 13.12442287267417
ONEWEB-0146             
1 47292U 20100AL  26187.92682262 -.00000351  00000+0 -10109-2 0  9991
2 47292  87.8963 346.7360 0001490  93.1257 267.0042 13.12442310267262
ONEWEB-0147             
1 47293U 20100AM  26188.42660970  .00000441  00000+0  11908-2 0  9996
2 47293  87.8964 346.6188 0001821 100.1127 260.0207 13.12443103267227
ONEWEB-0115             
1 48042U 21025A   26188.59130041  .00000260  00000+0  67808-3 0  9995
2 48042  87.8979 316.1628 0001956 101.5353 258.5996 13.13471192256272
ONEWEB-0152             
1 48043U 21025B   26187.84307383 -.00000302  00000+0 -86099-3 0  9990
2 48043  87.8984 316.3089 0001779 100.2003 259.9327 13.13469104256131
ONEWEB-0153             
1 48044U 21025C   26187.89724356  .00000191  00000+0  48714-3 0  9995
2 48044  87.8975 316.2995 0001988  98.8314 261.3040 13.13468770256133
ONEWEB-0154             
1 48045U 21025D   26188.35092847  .00000340  00000+0  89528-3 0  9995
2 48045  87.8981 316.2078 0001875 105.5036 254.6300 13.13469721256158
ONEWEB-0116             
1 48046U 21025E   26188.31368053 -.00000185  00000+0 -54177-3 0  9998
2 48046  87.8982 316.2128 0001764 100.6396 259.4932 13.13470050256294
ONEWEB-0150             
1 48047U 21025F   26188.36616388  .00000033  00000+0  54946-4 0  9996
2 48047  87.8982 316.1994 0001936  93.1470 266.9880 13.13469131256197
ONEWEB-0107             
1 48048U 21025G   26188.29169265  .00000407  00000+0  10801-2 0  9991
2 48048  87.8984 316.2104 0002088  99.0890 261.0475 13.13469268256168
ONEWEB-0101             
1 48049U 21025H   26188.33061956  .00000151  00000+0  37979-3 0  9997
2 48049  87.8973 316.2163 0001981 102.3579 257.7772 13.13471061256149
ONEWEB-0113             
1 48050U 21025J   26187.89157251  .00000256  00000+0  66179-3 0  9993
2 48050  87.8978 316.2119 0001848  95.1920 264.9420 13.13891777256193
ONEWEB-0112             
1 48051U 21025K   26188.37293049 -.00000115  00000+0 -35002-3 0  9991
2 48051  87.8985 316.1924 0002091 104.0105 256.1257 13.13469069256243
ONEWEB-0156             
1 48052U 21025L   26188.30522188 -.00000207  00000+0 -60200-3 0  9994
2 48052  87.8983 316.2156 0001998  97.1698 262.9658 13.13471844256215
ONEWEB-0161             
1 48053U 21025M   26188.35600075  .00000262  00000+0  68190-3 0  9997
2 48053  87.8981 316.2064 0002084  96.6989 263.4377 13.13468811256153
